[Satellite]
VERSION=1.1
NAME=GRIFEX
NICKNAME=GRIFEX
TLE1=1 40379U 15003D   15055.31819525  .00009198  00000-0  48734-3 0  9998
TLE2=2 40379  99.1244  68.0888 0164408 263.3039  94.9464 15.04735023  3561
